{
  "type": "FeatureCollection",
  "features": [
    {
      "type": "Feature",
      "properties": {
        "norad_id": 25590,
        "name": "COSMOS 2361",
        "group": "musson",
        "lat": 24.49867398924172,
        "lon": -14.187313745051616,
        "alt_km": 999.9937666474334,
        "timestamp": "2025-12-14T18:52:55.773084+00:00",
        "meta_object_name": "COSMOS 2361",
        "meta_object_id": "1998-076A",
        "meta_epoch": "2025-12-13T23:48:55.971072",
        "meta_mean_motion": 13.73217634,
        "meta_eccentricity": 0.00300643,
        "meta_inclination": 82.9339,
        "meta_ra_of_asc_node": 343.1599,
        "meta_arg_of_pericenter": 261.9729,
        "meta_mean_anomaly": 157.362,
        "meta_ephemeris_type": 0,
        "meta_classification_type": "U",
        "meta_norad_cat_id": 25590,
        "meta_element_set_no": 999,
        "meta_rev_at_epoch": 35128,
        "meta_bstar": 8.4707624e-05,
        "meta_mean_motion_dot": 9.3e-07,
        "meta_mean_motion_ddot": 0,
        "tle_line1": "1 25590U 98076A   25347.99231448  .00000093  00000+0  84708-4 0  9994",
        "tle_line2": "2 25590  82.9339 343.1599 0030064 261.9729 157.3620 13.73217634351280"
      },
      "geometry": {
        "type": "Point",
        "coordinates": [
          -14.187313745051616,
          24.49867398924172
        ]
      }
    },
    {
      "type": "Feature",
      "properties": {
        "norad_id": 26818,
        "name": "COSMOS 2378",
        "group": "musson",
        "lat": 74.69478904324325,
        "lon": 151.22882462732252,
        "alt_km": 979.8854331911589,
        "timestamp": "2025-12-14T18:52:55.773105+00:00",
        "meta_object_name": "COSMOS 2378",
        "meta_object_id": "2001-023A",
        "meta_epoch": "2025-12-13T23:27:39.004992",
        "meta_mean_motion": 13.74142091,
        "meta_eccentricity": 0.0032476,
        "meta_inclination": 82.9272,
        "meta_ra_of_asc_node": 358.807,
        "meta_arg_of_pericenter": 201.4025,
        "meta_mean_anomaly": 221.6535,
        "meta_ephemeris_type": 0,
        "meta_classification_type": "U",
        "meta_norad_cat_id": 26818,
        "meta_element_set_no": 999,
        "meta_rev_at_epoch": 22940,
        "meta_bstar": 6.0761342e-05,
        "meta_mean_motion_dot": 7.2e-07,
        "meta_mean_motion_ddot": 0,
        "tle_line1": "1 26818U 01023A   25347.97753478  .00000072  00000+0  60761-4 0  9994",
        "tle_line2": "2 26818  82.9272 358.8070 0032476 201.4025 221.6535 13.74142091229407"
      },
      "geometry": {
        "type": "Point",
        "coordinates": [
          151.22882462732252,
          74.69478904324325
        ]
      }
    },
    {
      "type": "Feature",
      "properties": {
        "norad_id": 27436,
        "name": "COSMOS 2389",
        "group": "musson",
        "lat": -41.91907969458699,
        "lon": -60.90929078558821,
        "alt_km": 992.0024327665942,
        "timestamp": "2025-12-14T18:52:55.773118+00:00",
        "meta_object_name": "COSMOS 2389",
        "meta_object_id": "2002-026A",
        "meta_epoch": "2025-12-14T00:12:40.705344",
        "meta_mean_motion": 13.75154781,
        "meta_eccentricity": 0.00475792,
        "meta_inclination": 82.9504,
        "meta_ra_of_asc_node": 306.0451,
        "meta_arg_of_pericenter": 57.295,
        "meta_mean_anomaly": 11.8991,
        "meta_ephemeris_type": 0,
        "meta_classification_type": "U",
        "meta_norad_cat_id": 27436,
        "meta_element_set_no": 999,
        "meta_rev_at_epoch": 18166,
        "meta_bstar": 7.1890862e-05,
        "meta_mean_motion_dot": 8.5e-07,
        "meta_mean_motion_ddot": 0,
        "tle_line1": "1 27436U 02026A   25348.00880446  .00000085  00000+0  71891-4 0  9996",
        "tle_line2": "2 27436  82.9504 306.0451 0047579  57.2950  11.8991 13.75154781181664"
      },
      "geometry": {
        "type": "Point",
        "coordinates": [
          -60.90929078558821,
          -41.91907969458699
        ]
      }
    },
    {
      "type": "Feature",
      "properties": {
        "norad_id": 27818,
        "name": "COSMOS 2398",
        "group": "musson",
        "lat": -69.65708849114093,
        "lon": 110.69145605258598,
        "alt_km": 1017.8793747233613,
        "timestamp": "2025-12-14T18:52:55.773129+00:00",
        "meta_object_name": "COSMOS 2398",
        "meta_object_id": "2003-023A",
        "meta_epoch": "2025-12-13T20:57:39.333024",
        "meta_mean_motion": 13.72385861,
        "meta_eccentricity": 0.00326139,
        "meta_inclination": 82.9485,
        "meta_ra_of_asc_node": 271.8629,
        "meta_arg_of_pericenter": 108.7507,
        "meta_mean_anomaly": 311.7407,
        "meta_ephemeris_type": 0,
        "meta_classification_type": "U",
        "meta_norad_cat_id": 27818,
        "meta_element_set_no": 999,
        "meta_rev_at_epoch": 12832,
        "meta_bstar": 6.0595822e-05,
        "meta_mean_motion_dot": 7.1e-07,
        "meta_mean_motion_ddot": 0,
        "tle_line1": "1 27818U 03023A   25347.87337191  .00000071  00000+0  60596-4 0  9991",
        "tle_line2": "2 27818  82.9485 271.8629 0032613 108.7507 311.7407 13.72385861128325"
      },
      "geometry": {
        "type": "Point",
        "coordinates": [
          110.69145605258598,
          -69.65708849114093
        ]
      }
    },
    {
      "type": "Feature",
      "properties": {
        "norad_id": 28380,
        "name": "COSMOS 2407",
        "group": "musson",
        "lat": 63.399198719997045,
        "lon": 17.092970382083152,
        "alt_km": 958.8695117222414,
        "timestamp": "2025-12-14T18:52:55.773140+00:00",
        "meta_object_name": "COSMOS 2407",
        "meta_object_id": "2004-028A",
        "meta_epoch": "2025-12-13T23:41:28.195296",
        "meta_mean_motion": 13.76313816,
        "meta_eccentricity": 0.00402908,
        "meta_inclination": 82.9606,
        "meta_ra_of_asc_node": 211.9692,
        "meta_arg_of_pericenter": 51.4581,
        "meta_mean_anomaly": 64.1027,
        "meta_ephemeris_type": 0,
        "meta_classification_type": "U",
        "meta_norad_cat_id": 28380,
        "meta_element_set_no": 999,
        "meta_rev_at_epoch": 7440,
        "meta_bstar": 6.9765211e-05,
        "meta_mean_motion_dot": 8.4e-07,
        "meta_mean_motion_ddot": 0,
        "tle_line1": "1 28380U 04028A   25347.98713189  .00000084  00000+0  69765-4 0  9990",
        "tle_line2": "2 28380  82.9606 211.9692 0040290  51.4581  64.1027 13.76313816 74407"
      },
      "geometry": {
        "type": "Point",
        "coordinates": [
          17.092970382083152,
          63.399198719997045
        ]
      }
    },
    {
      "type": "Feature",
      "properties": {
        "norad_id": 28521,
        "name": "COSMOS 2414",
        "group": "musson",
        "lat": 74.54978741224211,
        "lon": -23.49010147318829,
        "alt_km": 902.9568361982947,
        "timestamp": "2025-12-14T18:52:55.773152+00:00",
        "meta_object_name": "COSMOS 2414",
        "meta_object_id": "2005-002A",
        "meta_epoch": "2025-12-13T23:21:07.664832",
        "meta_mean_motion": 13.87903085,
        "meta_eccentricity": 0.00409627,
        "meta_inclination": 82.949,
        "meta_ra_of_asc_node": 183.7274,
        "meta_arg_of_pericenter": 136.2149,
        "meta_mean_anomaly": 224.2275,
        "meta_ephemeris_type": 0,
        "meta_classification_type": "U",
        "meta_norad_cat_id": 28521,
        "meta_element_set_no": 999,
        "meta_rev_at_epoch": 5812,
        "meta_bstar": 7.7347599e-05,
        "meta_mean_motion_dot": 1.09e-06,
        "meta_mean_motion_ddot": 0,
        "tle_line1": "1 28521U 05002A   25347.97300538  .00000109  00000+0  77348-4 0  9993",
        "tle_line2": "2 28521  82.9490 183.7274 0040962 136.2149 224.2275 13.87903085 58125"
      },
      "geometry": {
        "type": "Point",
        "coordinates": [
          -23.49010147318829,
          74.54978741224211
        ]
      }
    },
    {
      "type": "Feature",
      "properties": {
        "norad_id": 32052,
        "name": "COSMOS 2429",
        "group": "musson",
        "lat": 35.058566649675726,
        "lon": 156.83991555804107,
        "alt_km": 989.6147579197896,
        "timestamp": "2025-12-14T18:52:55.773163+00:00",
        "meta_object_name": "COSMOS 2429",
        "meta_object_id": "2007-038A",
        "meta_epoch": "2025-12-13T22:58:33.808800",
        "meta_mean_motion": 13.75149498,
        "meta_eccentricity": 0.00391741,
        "meta_inclination": 82.9804,
        "meta_ra_of_asc_node": 342.411,
        "meta_arg_of_pericenter": 34.5398,
        "meta_mean_anomaly": 325.8292,
        "meta_ephemeris_type": 0,
        "meta_classification_type": "U",
        "meta_norad_cat_id": 32052,
        "meta_element_set_no": 999,
        "meta_rev_at_epoch": 91619,
        "meta_bstar": 7.8247183e-05,
        "meta_mean_motion_dot": 9.1e-07,
        "meta_mean_motion_ddot": 0,
        "tle_line1": "1 32052U 07038A   25347.95733575  .00000091  00000+0  78247-4 0  9996",
        "tle_line2": "2 32052  82.9804 342.4110 0039174  34.5398 325.8292 13.75149498916194"
      },
      "geometry": {
        "type": "Point",
        "coordinates": [
          156.83991555804107,
          35.058566649675726
        ]
      }
    },
    {
      "type": "Feature",
      "properties": {
        "norad_id": 35635,
        "name": "COSMOS 2454",
        "group": "musson",
        "lat": 10.476344833609934,
        "lon": -14.217105440283715,
        "alt_km": 933.215593419779,
        "timestamp": "2025-12-14T18:52:55.773173+00:00",
        "meta_object_name": "COSMOS 2454",
        "meta_object_id": "2009-039A",
        "meta_epoch": "2025-12-13T23:36:00.076608",
        "meta_mean_motion": 13.89928849,
        "meta_eccentricity": 0.0020413,
        "meta_inclination": 82.9553,
        "meta_ra_of_asc_node": 167.7022,
        "meta_arg_of_pericenter": 70.4033,
        "meta_mean_anomaly": 40.8769,
        "meta_ephemeris_type": 0,
        "meta_classification_type": "U",
        "meta_norad_cat_id": 35635,
        "meta_element_set_no": 999,
        "meta_rev_at_epoch": 83167,
        "meta_bstar": 7.8969622e-05,
        "meta_mean_motion_dot": 1.13e-06,
        "meta_mean_motion_ddot": 0,
        "tle_line1": "1 35635U 09039A   25347.98333422  .00000113  00000+0  78970-4 0  9997",
        "tle_line2": "2 35635  82.9553 167.7022 0020413  70.4033  40.8769 13.89928849831678"
      },
      "geometry": {
        "type": "Point",
        "coordinates": [
          -14.217105440283715,
          10.476344833609934
        ]
      }
    },
    {
      "type": "Feature",
      "properties": {
        "norad_id": 36519,
        "name": "COSMOS 2463",
        "group": "musson",
        "lat": 73.43253336787812,
        "lon": 49.74643232214287,
        "alt_km": 1009.4142346873077,
        "timestamp": "2025-12-14T18:52:55.773184+00:00",
        "meta_object_name": "COSMOS 2463",
        "meta_object_id": "2010-017A",
        "meta_epoch": "2025-12-13T20:36:22.276224",
        "meta_mean_motion": 13.71649225,
        "meta_eccentricity": 0.00347828,
        "meta_inclination": 82.9612,
        "meta_ra_of_asc_node": 25.8905,
        "meta_arg_of_pericenter": 284.8494,
        "meta_mean_anomaly": 249.3134,
        "meta_ephemeris_type": 0,
        "meta_classification_type": "U",
        "meta_norad_cat_id": 36519,
        "meta_element_set_no": 999,
        "meta_rev_at_epoch": 78252,
        "meta_bstar": 5.027849e-05,
        "meta_mean_motion_dot": 6e-07,
        "meta_mean_motion_ddot": 0,
        "tle_line1": "1 36519U 10017A   25347.85859116  .00000060  00000+0  50278-4 0  9998",
        "tle_line2": "2 36519  82.9612  25.8905 0034782 284.8494 249.3134 13.71649225782526"
      },
      "geometry": {
        "type": "Point",
        "coordinates": [
          49.74643232214287,
          73.43253336787812
        ]
      }
    }
  ]
}